1 T0281U          25265.56439475  .00000832  00000-0  66374-2 0  9995
2 T0281  82.4846  11.7058 0125814 141.6655 219.3444 12.32102792245979
1 T0282U          25266.57849930  .00000105  00000-0  60730-3 0  9993
2 T0282  82.7580 220.9990 0470622 209.2392 148.1575 12.25521487247880
1 T0284U          25273.86220855  .00007126  00000-0  23918-1 0  9999
2 T0284  82.7288  68.8620 0158301  78.5706 283.3137 12.95141796257839
1 T0286U          25269.64076088  .00001927  00000-0  57303-2 0  9998
2 T0286 101.7963 233.8363 0202163  32.3438 328.9873 13.02802178  3915
1 T0288U          25263.97919268 -.00000154  00000-0 -57119-3 0  9995
2 T0288  90.2440   0.2897 0033559 116.1535 244.3043 12.95736699259409
1 T0292U          25274.41028875 -.00000097  00000-0 -51856-3 0  9994
2 T0292  73.6009 160.5833 0020888  39.6883 320.5690 12.50017958266703
1 T0293U          25273.17185421  .00004616  00000-0  11019-2 0  9993
2 T0293  98.6677  70.4405 0006694 171.3093 188.8220 14.54166086309066
1 T0294U          25268.52182206  .00002780  00000-0  10604-2 0  9994
2 T0294  99.1574 187.9380 0076787  14.6726 345.6659 14.30046871303153
1 T0295U          25265.65087883  .00036451  00000-0  59519-2 0  9991
2 T0295  97.7263 235.1102 0104714 335.6513  23.9764 14.67144401 77129
1 T0296U          25270.70507106  .00000955  00000-0  32395-2 0  9992
2 T0296  90.2432   1.1953 0026755 350.4777   9.5833 12.97955008275486
1 T0297U          25275.02235435  .00000063  00000-0  18849-3 0  9995
2 T0297  90.2701  17.0450 0039766 256.6391 103.0296 12.99373014276194
1 T0299U          25276.53659455  .00000671  00000-0  23343-2 0  9995
2 T0299  90.2492   6.1934 0029601 129.3462 231.0288 12.95838129254605
