{
  "timestamp": "2025-10-04T12:28:05.039749",
  "data": [
    {
      "OBJECT_NAME": "UNKNOWN",
      "OBJECT_ID": "",
      "EPOCH": "2025-09-22T13:32:43.706400",
      "MEAN_MOTION": 12.32102792,
      "ECCENTRICITY": 0.01258144,
      "INCLINATION": 82.4846,
      "RA_OF_ASC_NODE": 11.7058,
      "ARG_OF_PERICENTER": 141.6655,
      "MEAN_ANOMALY": 219.3444,
      "EPHEMERIS_TYPE": 0,
      "CLASSIFICATION_TYPE": "U",
      "NORAD_CAT_ID": 270281,
      "ELEMENT_SET_NO": 999,
      "REV_AT_EPOCH": 24597,
      "BSTAR": 0.0066374135,
      "MEAN_MOTION_DOT": 8.32e-6,
      "MEAN_MOTION_DDOT": 0
    },
    {
      "OBJECT_NAME": "UNKNOWN",
      "OBJECT_ID": "",
      "EPOCH": "2025-09-23T13:53:02.339520",
      "MEAN_MOTION": 12.25521487,
      "ECCENTRICITY": 0.04706219,
      "INCLINATION": 82.758,
      "RA_OF_ASC_NODE": 220.999,
      "ARG_OF_PERICENTER": 209.2392,
      "MEAN_ANOMALY": 148.1575,
      "EPHEMERIS_TYPE": 0,
      "CLASSIFICATION_TYPE": "U",
      "NORAD_CAT_ID": 270282,
      "ELEMENT_SET_NO": 999,
      "REV_AT_EPOCH": 24788,
      "BSTAR": 0.00060730451,
      "MEAN_MOTION_DOT": 1.05e-6,
      "MEAN_MOTION_DDOT": 0
    },
    {
      "OBJECT_NAME": "UNKNOWN",
      "OBJECT_ID": "",
      "EPOCH": "2025-09-30T20:41:34.818720",
      "MEAN_MOTION": 12.95141796,
      "ECCENTRICITY": 0.01583012,
      "INCLINATION": 82.7288,
      "RA_OF_ASC_NODE": 68.862,
      "ARG_OF_PERICENTER": 78.5706,
      "MEAN_ANOMALY": 283.3137,
      "EPHEMERIS_TYPE": 0,
      "CLASSIFICATION_TYPE": "U",
      "NORAD_CAT_ID": 270284,
      "ELEMENT_SET_NO": 999,
      "REV_AT_EPOCH": 25783,
      "BSTAR": 0.02391803,
      "MEAN_MOTION_DOT": 7.126e-5,
      "MEAN_MOTION_DDOT": 0
    },
    {
      "OBJECT_NAME": "UNKNOWN",
      "OBJECT_ID": "",
      "EPOCH": "2025-09-26T15:22:41.740032",
      "MEAN_MOTION": 13.02802178,
      "ECCENTRICITY": 0.02021632,
      "INCLINATION": 101.7963,
      "RA_OF_ASC_NODE": 233.8363,
      "ARG_OF_PERICENTER": 32.3438,
      "MEAN_ANOMALY": 328.9873,
      "EPHEMERIS_TYPE": 0,
      "CLASSIFICATION_TYPE": "U",
      "NORAD_CAT_ID": 270286,
      "ELEMENT_SET_NO": 999,
      "REV_AT_EPOCH": 391,
      "BSTAR": 0.0057303116,
      "MEAN_MOTION_DOT": 1.927e-5,
      "MEAN_MOTION_DDOT": 0
    },
    {
      "OBJECT_NAME": "UNKNOWN",
      "OBJECT_ID": "",
      "EPOCH": "2025-09-20T23:30:02.247552",
      "MEAN_MOTION": 12.95736699,
      "ECCENTRICITY": 0.00335586,
      "INCLINATION": 90.244,
      "RA_OF_ASC_NODE": 0.2897,
      "ARG_OF_PERICENTER": 116.1535,
      "MEAN_ANOMALY": 244.3043,
      "EPHEMERIS_TYPE": 0,
      "CLASSIFICATION_TYPE": "U",
      "NORAD_CAT_ID": 270288,
      "ELEMENT_SET_NO": 999,
      "REV_AT_EPOCH": 25940,
      "BSTAR": -0.0005711918,
      "MEAN_MOTION_DOT": -1.54e-6,
      "MEAN_MOTION_DDOT": 0
    },
    {
      "OBJECT_NAME": "UNKNOWN",
      "OBJECT_ID": "",
      "EPOCH": "2025-10-01T09:50:48.948000",
      "MEAN_MOTION": 12.50017958,
      "ECCENTRICITY": 0.00208877,
      "INCLINATION": 73.6009,
      "RA_OF_ASC_NODE": 160.5833,
      "ARG_OF_PERICENTER": 39.6883,
      "MEAN_ANOMALY": 320.569,
      "EPHEMERIS_TYPE": 0,
      "CLASSIFICATION_TYPE": "U",
      "NORAD_CAT_ID": 270292,
      "ELEMENT_SET_NO": 999,
      "REV_AT_EPOCH": 26670,
      "BSTAR": -0.0005185555,
      "MEAN_MOTION_DOT": -9.7e-7,
      "MEAN_MOTION_DDOT": 0
    },
    {
      "OBJECT_NAME": "UNKNOWN",
      "OBJECT_ID": "",
      "EPOCH": "2025-09-30T04:07:28.203744",
      "MEAN_MOTION": 14.54166086,
      "ECCENTRICITY": 0.0006694,
      "INCLINATION": 98.6677,
      "RA_OF_ASC_NODE": 70.4405,
      "ARG_OF_PERICENTER": 171.3093,
      "MEAN_ANOMALY": 188.822,
      "EPHEMERIS_TYPE": 0,
      "CLASSIFICATION_TYPE": "U",
      "NORAD_CAT_ID": 270293,
      "ELEMENT_SET_NO": 999,
      "REV_AT_EPOCH": 30906,
      "BSTAR": 0.001101906,
      "MEAN_MOTION_DOT": 4.616e-5,
      "MEAN_MOTION_DDOT": 0
    },
    {
      "OBJECT_NAME": "UNKNOWN",
      "OBJECT_ID": "",
      "EPOCH": "2025-09-25T12:31:25.425984",
      "MEAN_MOTION": 14.30046871,
      "ECCENTRICITY": 0.00767874,
      "INCLINATION": 99.1574,
      "RA_OF_ASC_NODE": 187.938,
      "ARG_OF_PERICENTER": 14.6726,
      "MEAN_ANOMALY": 345.6659,
      "EPHEMERIS_TYPE": 0,
      "CLASSIFICATION_TYPE": "U",
      "NORAD_CAT_ID": 270294,
      "ELEMENT_SET_NO": 999,
      "REV_AT_EPOCH": 30315,
      "BSTAR": 0.0010604296,
      "MEAN_MOTION_DOT": 2.78e-5,
      "MEAN_MOTION_DDOT": 0
    },
    {
      "OBJECT_NAME": "UNKNOWN",
      "OBJECT_ID": "",
      "EPOCH": "2025-09-22T15:37:15.930912",
      "MEAN_MOTION": 14.67144401,
      "ECCENTRICITY": 0.01047142,
      "INCLINATION": 97.7263,
      "RA_OF_ASC_NODE": 235.1102,
      "ARG_OF_PERICENTER": 335.6513,
      "MEAN_ANOMALY": 23.9764,
      "EPHEMERIS_TYPE": 0,
      "CLASSIFICATION_TYPE": "U",
      "NORAD_CAT_ID": 270295,
      "ELEMENT_SET_NO": 999,
      "REV_AT_EPOCH": 7712,
      "BSTAR": 0.0059519185,
      "MEAN_MOTION_DOT": 0.00036451,
      "MEAN_MOTION_DDOT": 0
    },
    {
      "OBJECT_NAME": "UNKNOWN",
      "OBJECT_ID": "",
      "EPOCH": "2025-09-27T16:55:18.139584",
      "MEAN_MOTION": 12.97955008,
      "ECCENTRICITY": 0.00267552,
      "INCLINATION": 90.2432,
      "RA_OF_ASC_NODE": 1.1953,
      "ARG_OF_PERICENTER": 350.4777,
      "MEAN_ANOMALY": 9.5833,
      "EPHEMERIS_TYPE": 0,
      "CLASSIFICATION_TYPE": "U",
      "NORAD_CAT_ID": 270296,
      "ELEMENT_SET_NO": 999,
      "REV_AT_EPOCH": 27548,
      "BSTAR": 0.003239472,
      "MEAN_MOTION_DOT": 9.55e-6,
      "MEAN_MOTION_DDOT": 0
    },
    {
      "OBJECT_NAME": "UNKNOWN",
      "OBJECT_ID": "",
      "EPOCH": "2025-10-02T00:32:11.415840",
      "MEAN_MOTION": 12.99373014,
      "ECCENTRICITY": 0.0039766,
      "INCLINATION": 90.2701,
      "RA_OF_ASC_NODE": 17.045,
      "ARG_OF_PERICENTER": 256.6391,
      "MEAN_ANOMALY": 103.0296,
      "EPHEMERIS_TYPE": 0,
      "CLASSIFICATION_TYPE": "U",
      "NORAD_CAT_ID": 270297,
      "ELEMENT_SET_NO": 999,
      "REV_AT_EPOCH": 27619,
      "BSTAR": 0.00018849263,
      "MEAN_MOTION_DOT": 6.3e-7,
      "MEAN_MOTION_DDOT": 0
    },
    {
      "OBJECT_NAME": "UNKNOWN",
      "OBJECT_ID": "",
      "EPOCH": "2025-10-03T12:52:41.769120",
      "MEAN_MOTION": 12.95838129,
      "ECCENTRICITY": 0.00296012,
      "INCLINATION": 90.2492,
      "RA_OF_ASC_NODE": 6.1934,
      "ARG_OF_PERICENTER": 129.3462,
      "MEAN_ANOMALY": 231.0288,
      "EPHEMERIS_TYPE": 0,
      "CLASSIFICATION_TYPE": "U",
      "NORAD_CAT_ID": 270299,
      "ELEMENT_SET_NO": 999,
      "REV_AT_EPOCH": 25460,
      "BSTAR": 0.0023342872,
      "MEAN_MOTION_DOT": 6.71e-6,
      "MEAN_MOTION_DDOT": 0
    }
  ]
}
